IRIDIUM 36              
1 24967U 97056C   24352.81021276  .00000876  00000+0  28724-3 0  9994
2 24967  86.3971 249.1440 0001926  83.5920 276.5497 14.37297089426162
IRIDIUM 39              
1 25042U 97069D   24352.85398998  .00001593  00000+0  41657-3 0  9992
2 25042  86.3905 288.8833 0017383 185.1019 175.0011 14.48727994422708
IRIDIUM 38              
1 25043U 97069E   24352.82696125  .00001146  00000+0  37417-3 0  9996
2 25043  86.3949 309.4802 0002350  38.1779 321.9585 14.37786142419893
IRIDIUM 42              
1 25077U 97077A   24353.16933619  .00001025  00000+0  34587-3 0  9993
2 25077  86.3955 315.2840 0002312  68.5562 291.5882 14.36047082415215
IRIDIUM 44              
1 25078U 97077B   24352.84672763  .00001064  00000+0  33239-3 0  9994
2 25078  86.3947 297.8175 0000438  86.7119 273.4130 14.39915692417604
IRIDIUM 45              
1 25104U 97082A   24352.90737800  .00025525  00000+0  11503-2 0  9998
2 25104  86.3633 135.3086 0135985 286.9015  71.7351 15.12905186424542
IRIDIUM 24              
1 25105U 97082B   24352.91270641  .00001156  00000+0  34840-3 0  9999
2 25105  86.3925 157.1434 0010193 325.6137  34.4402 14.41738604417090
IRIDIUM 51              
1 25262U 98018A   24352.93589454  .00046526  00000+0  15725-2 0  9990
2 25262  86.3911 144.4931 0114942 219.3780 139.9071 15.24247267419491
